start=new Date('2023-04-02T00:00:00.000Z').valueOf();
sats=[{"REV_AT_EPOCH":"11834","NORAD_CAT_ID":"47642","ECCENTRICITY":"0.00023020","FILE":"3877516","SITE":"AFETR","EPOCH":"2023-04-01T20:12:52.081344","INCLINATION":"53.0534","CENTER_NAME":"EARTH","APOAPSIS":"548.436","BSTAR":"0.00364410000000","REF_FRAME":"TEME","PERIAPSIS":"545.247","GP_ID":"229276936","OBJECT_ID":"2021-012Y","OBJECT_TYPE":"PAYLOAD","SEMIMAJOR_AXIS":"6924.977","MEAN_MOTION":"15.06521374","MEAN_ELEMENT_THEORY":"SGP4","TLE_LINE2":"2 47642  53.0534 202.8179 0002302 173.1571 186.9450 15.06521374118340","COUNTRY_CODE":"US","EPHEMERIS_TYPE":"0","CLASSIFICATION_TYPE":"U","PERIOD":"95.584","MEAN_ANOMALY":"186.9450","MEAN_MOTION_DDOT":"0.0000000000000","RA_OF_ASC_NODE":"202.8179","MEAN_MOTION_DOT":"0.00054600","TIME_SYSTEM":"UTC","LAUNCH_DATE":"2021-02-16","TLE_LINE1":"1 47642U 21012Y   23091.84226946  .00054600  00000-0  36441-2 0  9990","RCS_SIZE":"LARGE","ELEMENT_SET_NO":"999","DECAY_DATE":null,"ARG_OF_PERICENTER":"173.1571","OBJECT_NAME":"STARLINK-2020"},{"OBJECT_NAME":"STARLINK-2022","ARG_OF_PERICENTER":"55.8409","RCS_SIZE":"LARGE","TLE_LINE1":"1 47643U 21012Z   23091.65753699  .00039930  00000-0  26802-2 0  9999","DECAY_DATE":null,"ELEMENT_SET_NO":"999","LAUNCH_DATE":"2021-02-16","RA_OF_ASC_NODE":"188.6446","MEAN_MOTION_DOT":"0.00039930","TIME_SYSTEM":"UTC","MEAN_MOTION_DDOT":"0.0000000000000","MEAN_ANOMALY":"304.2702","MEAN_ELEMENT_THEORY":"SGP4","MEAN_MOTION":"15.06458419","PERIOD":"95.588","TLE_LINE2":"2 47643  53.0535 188.6446 0001293  55.8409 304.2702 15.06458419118539","EPHEMERIS_TYPE":"0","COUNTRY_CODE":"US","CLASSIFICATION_TYPE":"U","OBJECT_ID":"2021-012Z","OBJECT_TYPE":"PAYLOAD","SEMIMAJOR_AXIS":"6925.170","REF_FRAME":"TEME","BSTAR":"0.00268020000000","GP_ID":"229276186","PERIAPSIS":"546.139","EPOCH":"2023-04-01T15:46:51.195936","APOAPSIS":"547.930","INCLINATION":"53.0535","CENTER_NAME":"EARTH","SITE":"AFETR","ECCENTRICITY":"0.00012930","FILE":"3877516","NORAD_CAT_ID":"47643","REV_AT_EPOCH":"11853"},{"EPOCH":"2023-04-01T17:40:53.007168","INCLINATION":"53.0527","CENTER_NAME":"EARTH","APOAPSIS":"547.937","SITE":"AFETR","ECCENTRICITY":"0.00014580","FILE":"3877516","REV_AT_EPOCH":"11827","NORAD_CAT_ID":"47644","MEAN_ANOMALY":"298.4701","MEAN_MOTION":"15.06493544","MEAN_ELEMENT_THEORY":"SGP4","TLE_LINE2":"2 47644  53.0527 208.2892 0001458  61.6435 298.4701 15.06493544118274","EPHEMERIS_TYPE":"0","COUNTRY_CODE":"US","CLASSIFICATION_TYPE":"U","PERIOD":"95.586","OBJECT_ID":"2021-012AA","OBJECT_TYPE":"PAYLOAD","SEMIMAJOR_AXIS":"6925.062","REF_FRAME":"TEME","BSTAR":"0.00250920000000","GP_ID":"229275936","PERIAPSIS":"545.917","RA_OF_ASC_NODE":"208.2892","MEAN_MOTION_DOT":"0.00037387","TIME_SYSTEM":"UTC","MEAN_MOTION_DDOT":"0.0000000000000","ARG_OF_PERICENTER":"61.6435","OBJECT_NAME":"STARLINK-2026","TLE_LINE1":"1 47644U 21012AA  23091.73672462  .00037387  00000-0  25092-2 0  9991","RCS_SIZE":"LARGE","ELEMENT_SET_NO":"999","DECAY_DATE":null,"LAUNCH_DATE":"2021-02-16"},{"SITE":"AFETR","EPOCH":"2023-04-01T15:00:23.421312","APOAPSIS":"547.988","INCLINATION":"53.0519","CENTER_NAME":"EARTH","NORAD_CAT_ID":"47645","REV_AT_EPOCH":"11864","ECCENTRICITY":"0.00013660","FILE":"3877516","MEAN_ELEMENT_THEORY":"SGP4","MEAN_MOTION":"15.06455902","PERIOD":"95.589","COUNTRY_CODE":"US","TLE_LINE2":"2 47645  53.0519 179.0342 0001366  89.7611 270.3535 15.06455902118647","CLASSIFICATION_TYPE":"U","EPHEMERIS_TYPE":"0","MEAN_ANOMALY":"270.3535","REF_FRAME":"TEME","BSTAR":"0.00243830000000","PERIAPSIS":"546.096","GP_ID":"229277187","OBJECT_TYPE":"PAYLOAD","OBJECT_ID":"2021-012AB","SEMIMAJOR_AXIS":"6925.177","RA_OF_ASC_NODE":"179.0342","MEAN_MOTION_DOT":"0.00036280","TIME_SYSTEM":"UTC","MEAN_MOTION_DDOT":"0.0000000000000","TLE_LINE1":"1 47645U 21012AB  23091.62527108  .00036280  00000-0  24383-2 0  9999","RCS_SIZE":"LARGE","DECAY_DATE":null,"ELEMENT_SET_NO":"999","OBJECT_NAME":"STARLINK-2027","ARG_OF_PERICENTER":"89.7611","LAUNCH_DATE":"2021-02-16"},{"BSTAR":"0.00136650000000","REF_FRAME":"TEME","PERIAPSIS":"546.266","GP_ID":"229277437","OBJECT_TYPE":"PAYLOAD","OBJECT_ID":"2021-012AC","SEMIMAJOR_AXIS":"6925.357","MEAN_ELEMENT_THEORY":"SGP4","MEAN_MOTION":"15.06397233","PERIOD":"95.592","EPHEMERIS_TYPE":"0","TLE_LINE2":"2 47646  53.0548 142.9035 0001381  72.4404 287.6736 15.06397233119179","COUNTRY_CODE":"US","CLASSIFICATION_TYPE":"U","MEAN_ANOMALY":"287.6736","NORAD_CAT_ID":"47646","REV_AT_EPOCH":"11917","ECCENTRICITY":"0.00013810","FILE":"3877516","SITE":"AFETR","EPOCH":"2023-04-01T21:03:23.292288","APOAPSIS":"548.178","INCLINATION":"53.0548","CENTER_NAME":"EARTH","LAUNCH_DATE":"2021-02-16","TLE_LINE1":"1 47646U 21012AC  23091.87735292  .00020129  00000-0  13665-2 0  9998","RCS_SIZE":"LARGE","DECAY_DATE":null,"ELEMENT_SET_NO":"999","OBJECT_NAME":"STARLINK-2028","ARG_OF_PERICENTER":"72.4404","MEAN_MOTION_DDOT":"0.0000000000000","MEAN_MOTION_DOT":"0.00020129","RA_OF_ASC_NODE":"142.9035","TIME_SYSTEM":"UTC"},{"TLE_LINE2":"2 47647  53.0537 209.1277 0001084  94.5840 265.5273 15.06396098118247","COUNTRY_CODE":"US","EPHEMERIS_TYPE":"0","CLASSIFICATION_TYPE":"U","PERIOD":"95.592","MEAN_MOTION":"15.06396098","MEAN_ELEMENT_THEORY":"SGP4","MEAN_ANOMALY":"265.5273","PERIAPSIS":"546.475","GP_ID":"229244408","REF_FRAME":"TEME","BSTAR":"0.00243860000000","SEMIMAJOR_AXIS":"6925.361","OBJECT_ID":"2021-012AD","OBJECT_TYPE":"PAYLOAD","SITE":"AFETR","INCLINATION":"53.0537","CENTER_NAME":"EARTH","APOAPSIS":"547.976","EPOCH":"2023-04-01T13:10:16.368384","REV_AT_EPOCH":"11824","NORAD_CAT_ID":"47647","FILE":"3877270","ECCENTRICITY":"0.00010840","DECAY_DATE":null,"ELEMENT_SET_NO":"999","RCS_SIZE":"LARGE","TLE_LINE1":"1 47647U 21012AD  23091.54880056  .00036225  00000-0  24386-2 0  9998","ARG_OF_PERICENTER":"94.5840","OBJECT_NAME":"STARLINK-2030","LAUNCH_DATE":"2021-02-16","TIME_SYSTEM":"UTC","MEAN_MOTION_DOT":"0.00036225","RA_OF_ASC_NODE":"209.1277","MEAN_MOTION_DDOT":"0.0000000000000"},{"SEMIMAJOR_AXIS":"6925.295","OBJECT_TYPE":"PAYLOAD","OBJECT_ID":"2021-012AE","GP_ID":"229276437","PERIAPSIS":"546.026","BSTAR":"0.00190650000000","REF_FRAME":"TEME","MEAN_ANOMALY":"265.1397","PERIOD":"95.591","COUNTRY_CODE":"US","TLE_LINE2":"2 47648  53.0545 188.5756 0001638  94.9779 265.1397 15.06417404118540","EPHEMERIS_TYPE":"0","CLASSIFICATION_TYPE":"U","MEAN_ELEMENT_THEORY":"SGP4","MEAN_MOTION":"15.06417404","FILE":"3877516","ECCENTRICITY":"0.00016380","NORAD_CAT_ID":"47648","REV_AT_EPOCH":"11854","APOAPSIS":"548.295","INCLINATION":"53.0545","CENTER_NAME":"EARTH","EPOCH":"2023-04-01T16:08:02.739552","SITE":"AFETR","LAUNCH_DATE":"2021-02-16","OBJECT_NAME":"STARLINK-2031","ARG_OF_PERICENTER":"94.9779","ELEMENT_SET_NO":"999","DECAY_DATE":null,"TLE_LINE1":"1 47648U 21012AE  23091.67225393  .00028243  00000-0  19065-2 0  9999","RCS_SIZE":"LARGE","MEAN_MOTION_DDOT":"0.0000000000000","TIME_SYSTEM":"UTC","RA_OF_ASC_NODE":"188.5756","MEAN_MOTION_DOT":"0.00028243"},{"MEAN_MOTION_DDOT":"0.0000000000000","TIME_SYSTEM":"UTC","RA_OF_ASC_NODE":"188.2660","MEAN_MOTION_DOT":"0.00047620","LAUNCH_DATE":"2021-02-16","OBJECT_NAME":"STARLINK-2032","ARG_OF_PERICENTER":"77.0829","ELEMENT_SET_NO":"999","DECAY_DATE":null,"TLE_LINE1":"1 47649U 21012AF  23091.74229223  .00047620  00000-0  31868-2 0  9999","RCS_SIZE":"LARGE","FILE":"3877516","ECCENTRICITY":"0.00005480","NORAD_CAT_ID":"47649","REV_AT_EPOCH":"11855","APOAPSIS":"547.325","CENTER_NAME":"EARTH","INCLINATION":"53.0522","EPOCH":"2023-04-01T17:48:54.048672","SITE":"AFETR","SEMIMAJOR_AXIS":"6925.081","OBJECT_TYPE":"PAYLOAD","OBJECT_ID":"2021-012AF","PERIAPSIS":"546.566","GP_ID":"229276687","BSTAR":"0.00318680000000","REF_FRAME":"TEME","MEAN_ANOMALY":"283.0221","PERIOD":"95.587","TLE_LINE2":"2 47649  53.0522 188.2660 0000548  77.0829 283.0221 15.06487334118559","COUNTRY_CODE":"US","EPHEMERIS_TYPE":"0","CLASSIFICATION_TYPE":"U","MEAN_ELEMENT_THEORY":"SGP4","MEAN_MOTION":"15.06487334"},{"TLE_LINE1":"1 47650U 21012AG  23091.52853739  .00029487  00000-0  19890-2 0  9994","RCS_SIZE":"LARGE","DECAY_DATE":null,"ELEMENT_SET_NO":"999","OBJECT_NAME":"STARLINK-2033","ARG_OF_PERICENTER":"52.6355","LAUNCH_DATE":"2021-02-16","MEAN_MOTION_DOT":"0.00029487","RA_OF_ASC_NODE":"189.2282","TIME_SYSTEM":"UTC","MEAN_MOTION_DDOT":"0.0000000000000","MEAN_ELEMENT_THEORY":"SGP4","MEAN_MOTION":"15.06422029","PERIOD":"95.591","CLASSIFICATION_TYPE":"U","TLE_LINE2":"2 47650  53.0514 189.2282 0001213  52.6355 307.4745 15.06422029117995","COUNTRY_CODE":"US","EPHEMERIS_TYPE":"0","MEAN_ANOMALY":"307.4745","BSTAR":"0.00198900000000","REF_FRAME":"TEME","GP_ID":"229253647","PERIAPSIS":"546.306","OBJECT_ID":"2021-012AG","OBJECT_TYPE":"PAYLOAD","SEMIMAJOR_AXIS":"6925.281","SITE":"AFETR","EPOCH":"2023-04-01T12:41:05.630496","APOAPSIS":"547.986","CENTER_NAME":"EARTH","INCLINATION":"53.0514","NORAD_CAT_ID":"47650","REV_AT_EPOCH":"11799","ECCENTRICITY":"0.00012130","FILE":"3877436"},{"LAUNCH_DATE":"2021-02-16","ARG_OF_PERICENTER":"55.0700","OBJECT_NAME":"STARLINK-2035","RCS_SIZE":"LARGE","TLE_LINE1":"1 47651U 21012AH  23091.63359174  .00035007  00000-0  23550-2 0  9994","ELEMENT_SET_NO":"999","DECAY_DATE":null,"MEAN_MOTION_DDOT":"0.0000000000000","MEAN_MOTION_DOT":"0.00035007","RA_OF_ASC_NODE":"208.7970","TIME_SYSTEM":"UTC","OBJECT_ID":"2021-012AH","OBJECT_TYPE":"PAYLOAD","SEMIMAJOR_AXIS":"6925.232","REF_FRAME":"TEME","BSTAR":"0.00235500000000","PERIAPSIS":"546.123","GP_ID":"229276187","MEAN_ANOMALY":"305.0421","MEAN_MOTION":"15.06438032","MEAN_ELEMENT_THEORY":"SGP4","COUNTRY_CODE":"US","TLE_LINE2":"2 47651  53.0525 208.7970 0001406  55.0700 305.0421 15.06438032118250","CLASSIFICATION_TYPE":"U","EPHEMERIS_TYPE":"0","PERIOD":"95.590","ECCENTRICITY":"0.00014060","FILE":"3877516","REV_AT_EPOCH":"11825","NORAD_CAT_ID":"47651","EPOCH":"2023-04-01T15:12:22.326336","INCLINATION":"53.0525","CENTER_NAME":"EARTH","APOAPSIS":"548.071","SITE":"AFETR"}];
